{
  "norad_id": 60049,
  "name": "STARLINK-11151 [DTC]",
  "history": [
    {
      "epoch": "2026-03-28T12:46:08.965344",
      "apogee_km": 360.47847547466154,
      "perigee_km": 359.03117631045916,
      "latitude_deg": 31.297159641676444,
      "longitude_deg": -124.02337184012868,
      "semi_major_axis_km": 6737.89182589256,
      "eccentricity": 0.0001074,
      "inclination_deg": 53.1596,
      "raan_deg": 173.1452,
      "arg_perigee_deg": 58.4056,
      "mean_anomaly_deg": 301.7066,
      "mean_motion_rev_day": 15.69700189
    }
  ]
}